1 31135U 07013A   17347.41567811  .00002439  00000-0  43269-4 0  9995
2 31135   2.4667 152.8325 0012978 269.5147  90.3419 15.30355135591212
